#aV2010 11 28  0  0   .00000000      96 DD+AD WGS84 FIT  NGA
## 1612       .00000000   900.00000000 55528  .0000000000000
+   32     1  2  3  4  5  6  7  8  9 10 11 12 13 14 15 16 17
+         18 19 20 21 22 23 24 25 26 27 28 29 30 31 32  0  0
+          0  0  0  0  0  0  0  0  0  0  0  0  0  0  0  0  0
+          0  0  0  0  0  0  0  0  0  0  0  0  0  0  0  0  0
+          0  0  0  0  0  0  0  0  0  0  0  0  0  0  0  0  0
++         0  0  0  0  0  0  0  0  0  0  0  0  0  0  0  0  0
++         0  0  0  0  0  0  0  0  0  0  0  0  0  0  0  0  0
++         0  0  0  0  0  0  0  0  0  0  0  0  0  0  0  0  0
++         0  0  0  0  0  0  0  0  0  0  0  0  0  0  0  0  0
++         0  0  0  0  0  0  0  0  0  0  0  0  0  0  0  0  0
%c cc cc ccc ccc cccc cccc cccc cccc ccccc ccccc ccccc ccccc
%c cc cc ccc ccc cccc cccc cccc cccc ccccc ccccc ccccc ccccc
%f  0.0000000  0.000000000  0.00000000000  0.000000000000000
%f  0.0000000  0.000000000  0.00000000000  0.000000000000000
%i    0    0    0    0      0      0      0      0         0
%i    0    0    0    0      0      0      0      0         0
/*      NGA, ST. LOUIS,MO.                                  
/*   EPHEMERIS COMPUTED FROM  3 DAYS OF DATA                
/* CCCCCCCCCCCCCCCCCCCCCCCCCCCCCCCCCCCCCCCCCCCCCCCCCCCCCCCCC
/* CCCCCCCCCCCCCCCCCCCCCCCCCCCCCCCCCCCCCCCCCCCCCCCCCCCCCCCCC
*  2010 11 28  0  0   .00000000                                                 
P  1 -26026.285240  -5485.733437  -1382.901036   -186.236145                    
V  1   2015.756051  -2193.748502 -31748.590352      -.035036                    
P  2  20363.114487  -8006.715112 -14715.438401    305.164825                    
V  2  -9722.279229  16506.897871 -22897.162375       .024160                    
P  3 -15579.211037   3785.716738  20804.762463    641.083027                    
V  3 -12142.736013 -24619.132935  -4201.193015       .051324                    
P  4  17326.116073   2475.868143 -20266.741162    230.666891                    
V  4 -15518.721270  19990.096357 -10575.769977       .097305                    
P  5  24055.801415  -3550.802773  10785.742734    -74.211798                    
V  5  13063.394252   4799.148981 -27422.590383      -.059602                    
P  6 -17056.189561  -1430.725532  20510.280865    406.932048                    
V  6  -9169.617791 -24070.590135  -9192.966302      -.114835                    
P  7      8.743322  19195.259365  18271.486592      -.221000                    
V  7 -16151.079710  16768.701770 -17806.809709       .004050                    
P  8   9787.331308  10669.599895  22264.214319      6.993101                    
V  8 -19936.129018  19899.381989  -1304.380944       .001492                    
P  9  14715.721158 -21928.164788  -3293.383652     45.207067                    
V  9   3816.817946  -1436.564195  31878.049715       .024227                    
P 10  25528.128397   7425.654328  -3230.522194    -58.959980                    
V 10  -4289.969033   1955.134066 -30961.402261      -.008524                    
P 11  -8866.957398  24628.322789  -3477.418026   -107.155049                    
V 11  -6588.136997   1426.015334  29838.065430      -.028576                    
P 12  10934.821109 -12312.376476 -20768.919914    -49.900676                    
V 12  25830.537997   5769.356097  10311.282017       .034927                    
P 13   4960.544029  25861.610847  -3396.698161    290.765735                    
V 13  -2903.838969  -3484.227913 -32066.192779      -.011317                    
P 14 -14599.420387 -17839.936884 -13152.829800    110.935836                    
V 14  -3396.151531 -16604.582868  25844.679152       .032630                    
P 15   7335.777307 -17581.677813  18468.489914   -178.256690                    
V 15  10008.042642  21318.199317  16478.701951       .043911                    
P 16 -25871.023931   -790.231049   6619.728914   -129.770395                    
V 16  -7697.991887  -3690.762433 -30394.244291      -.032012                    
P 17  14603.448780  19335.038894 -11023.880947    178.415432                    
V 17   2282.166834  14092.637496  27244.351688       .009599                    
P 18 -11623.990439 -15968.669804  18220.583466    107.150751                    
V 18  22391.024117   2704.878952  16559.094424       .021588                    
P 19 -10115.497238  14838.339841  19463.926685    -87.043384                    
V 19  -7985.598962 -23546.731316  14124.687771      -.034176                    
P 20  -7584.561285  14571.607217 -21001.834815     49.335263                    
V 20 -26091.763088  -4433.423143   6454.585789      -.001968                    
P 21  -2865.955130 -18409.509436  19068.189977   -105.444572                    
V 21  16959.316636 -16760.669492 -14525.579372      -.026963                    
P 22 -21734.532624 -11854.253598   9915.286430    158.013053                    
V 22  12750.632133   -664.304338  27535.067303      -.006803                    
P 23  -1901.691015  22628.736516 -13495.489301    341.199139                    
V 23  -7926.089433 -15500.446555 -25204.332907      -.020927                    
P 24 -17879.310030  19453.640885   -277.259308    342.761708                    
V 24  -2795.021897  -2030.473116  31648.406179       .034887                    
P 25  -3852.414284 -15577.866814 -21181.856127    -54.368649                    
V 25  26613.930474   3619.370324  -7516.220542      -.023765                    
P 26  13514.659258  -4829.516623  21769.835259    -60.100855                    
V 26   8212.565057  27784.294201   1441.111777      -.082822                    
P 27  18332.619105 -18521.532284   5087.809137    211.787043                    
V 27  -1594.023710   5858.348994  31467.864273       .036219                    
P 28  19258.918436  13381.616203  13233.456856      6.732935                    
V 28 -15854.845734  -1759.029588  25551.798933       .017472                    
P 29  -4626.740320 -25663.988778  -5067.303456    166.650837                    
V 29   4612.793296   5361.296606 -30856.207847       .027749                    
P 30 -20009.922787 -11974.646723 -13183.603747    300.118224                    
V 30  16180.914730    -54.134296 -25319.588068       .032154                    
P 31 -17921.752523    892.691810 -19430.397164     13.065157                    
V 31  15448.950094 -19718.398898 -14808.878037       .038031                    
P 32 -16157.879952   9180.332634 -18510.298867   -141.130640                    
V 32 -23030.374856  -7986.429646  16251.517060      -.084037                    
EOF
